NORAD_CAT_ID,OBJECT_NAME,OBJECT_TYPE,EPOCH,MEAN_MOTION,ECCENTRICITY,INCLINATION,RA_OF_ASC_NODE,ARG_OF_PERICENTER,MEAN_ANOMALY,BSTAR,MEAN_MOTION_DOT,MEAN_MOTION_DDOT,TLE_LINE0,TLE_LINE1,TLE_LINE2,SEMIMAJOR_AXIS,PERIOD,APOGEE,PERIGEE,DECAYED
49755.0,STARLINK-3210,PAYLOAD,2022-11-21 00:31:54,15.08851471,0.0001175,53.2134,157.0919,75.7285,284.3838,0.00036162,5.474e-05,0.0,0 STARLINK-3210,1 49755U 21115AH  22325.02215560  .00005474  00000-0  36162-3 0  9996,2 49755  53.2134 157.0919 0001175  75.7285 284.3838 15.08851471 54780,6917.845,95.437,540.523,538.8969999999998,0.0
49755.0,STARLINK-3210,PAYLOAD,2022-11-21 13:14:58,15.08856162,0.0001218,53.2135,154.7121,76.15,283.9627,0.00023911,3.521e-05,0.0,0 STARLINK-3210,1 49755U 21115AH  22325.55206958  .00003521  00000-0  23911-3 0  9994,2 49755  53.2135 154.7121 0001218  76.1500 283.9627 15.08856162 53752,6917.831,95.437,540.539,538.8530000000002,0.0
49755.0,STARLINK-3210,PAYLOAD,2022-11-21 19:36:30,15.08860549,0.0001243,53.2135,153.5226,77.1821,282.931,0.00023145,3.4e-05,0.0,0 STARLINK-3210,1 49755U 21115AH  22325.81702434  .00003400  00000-0  23145-3 0  9998,2 49755  53.2135 153.5226 0001243  77.1821 282.9310 15.08860549 53796,6917.818,95.436,540.5419999999998,538.823,0.0
49755.0,STARLINK-3210,PAYLOAD,2022-11-22 00:22:40,15.08861682,0.0001257,53.2136,152.6306,76.9496,283.1637,0.00021484,3.135e-05,0.0,0 STARLINK-3210,1 49755U 21115AH  22326.01574127  .00003135  00000-0  21484-3 0  9996,2 49755  53.2136 152.6306 0001257  76.9496 283.1637 15.08861682 53824,6917.814,95.436,540.549,538.81,0.0
49755.0,STARLINK-3210,PAYLOAD,2022-11-22 17:51:54,15.08845015,0.0001230999999999,53.2136,149.3594,81.7884,278.3248,-6.8583e-05,-1.379e-05,0.0,0 STARLINK-3210,1 49755U 21115AH  22326.74438490 -.00001379  00000-0 -68583-4 0  9990,2 49755  53.2136 149.3594 0001231  81.7884 278.3248 15.08845015 55045,6917.865,95.437,540.582,538.878,0.0
49755.0,STARLINK-3210,PAYLOAD,2022-11-22 19:27:17,15.08843637,0.0001229,53.2136,149.0621,81.0387,279.0744,-9.3101e-05,-1.769e-05,0.0,0 STARLINK-3210,1 49755U 21115AH  22326.81062479 -.00001769  00000-0 -93101-4 0  9995,2 49755  53.2136 149.0621 0001229  81.0387 279.0744 15.08843637 53945,6917.869000000002,95.437,540.5840000000002,538.884,0.0
49755.0,STARLINK-3210,PAYLOAD,2022-11-23 11:21:09,15.08839104,0.0001221,53.2136,146.0882,80.8525,279.2605,-9.0168e-05,-1.723e-05,0.0,0 STARLINK-3210,1 49755U 21115AH  22327.47302586 -.00001723  00000-0 -90168-4 0  9994,2 49755  53.2136 146.0882 0001221  80.8525 279.2605 15.08839104 54048,6917.8830000000025,95.438,540.5930000000002,538.903,0.0
49755.0,STARLINK-3210,PAYLOAD,2022-11-23 19:18:05,15.08839474,0.0001219,53.2137,144.6014,81.5283,278.5848,-8.2364e-05,-1.598e-05,0.0,0 STARLINK-3210,1 49755U 21115AH  22327.80422544 -.00001598  00000-0 -82364-4 0  9997,2 49755  53.2137 144.6014 0001219  81.5283 278.5848 15.08839474 55206,6917.882,95.438,540.59,538.904,0.0
49755.0,STARLINK-3210,PAYLOAD,2022-11-24 00:04:14,15.08839731,0.000122,53.2136,143.7091,81.1909,278.9221,-5.8236e-05,-1.215e-05,0.0,0 STARLINK-3210,1 49755U 21115AH  22328.00294547 -.00001215  00000-0 -58236-4 0  9997,2 49755  53.2136 143.7091 0001220  81.1909 278.9221 15.08839731 54128,6917.880999999999,95.438,540.59,538.9019999999998,0.0
49755.0,STARLINK-3210,PAYLOAD,2022-11-24 20:44:15,15.08840348,0.0001185,53.2149,139.8433,83.6877,276.425,0.00012587,1.716e-05,0.0,0 STARLINK-3210,1 49755U 21115AH  22328.86406882  .00001716  00000-0  12587-3 0  9990,2 49755  53.2149 139.8433 0001185  83.6877 276.4250 15.08840348 55367,6917.879,95.438,540.564,538.925,0.0
49755.0,STARLINK-3210,PAYLOAD,2022-11-25 11:02:43,15.08839701,0.0001162,53.2149,137.1668,84.8611,275.2513,0.00011427,1.531e-05,0.0,0 STARLINK-3210,1 49755U 21115AH  22329.46022951  .00001531  00000-0  11427-3 0  9995,2 49755  53.2149 137.1668 0001162  84.8611 275.2513 15.08839701 54349,6917.880999999999,95.438,540.55,538.942,0.0
49755.0,STARLINK-3210,PAYLOAD,2022-11-25 18:59:39,15.08844059,0.000118,53.2139,135.6797,83.5985,276.5142,0.00017045,2.426e-05,0.0,0 STARLINK-3210,1 49755U 21115AH  22329.79142714  .00002426  00000-0  17045-3 0  9997,2 49755  53.2139 135.6797 0001180  83.5985 276.5142 15.08844059 54393,6917.868,95.437,540.549,538.9169999999998,0.0
49755.0,STARLINK-3210,PAYLOAD,2022-11-25 23:45:48,15.08845839,0.000118,53.2139,134.7876,83.3603,276.7523,0.00018559,2.668e-05,0.0,0 STARLINK-3210,1 49755U 21115AH  22329.99014627  .00002668  00000-0  18559-3 0  9999,2 49755  53.2139 134.7876 0001180  83.3603 276.7523 15.08845839 55535,6917.863,95.437,540.544,538.911,0.0
49755.0,STARLINK-3210,PAYLOAD,2022-11-26 10:53:30,15.08838983,0.0001196,53.214,132.7059,83.3487,276.7641,6.857e-05,8.04e-06,0.0,0 STARLINK-3210,1 49755U 21115AH  22330.45382985  .00000804  00000-0  68570-4 0  9996,2 49755  53.2140 132.7059 0001196  83.3487 276.7641 15.08838983 55606,6917.8830000000025,95.438,540.576,538.9209999999998,0.0
49755.0,STARLINK-3210,PAYLOAD,2022-11-26 17:15:03,15.08842208,0.0001179,53.2141,131.5164,84.8149,275.2978,8.419100000000001e-05,1.052e-05,0.0,0 STARLINK-3210,1 49755U 21115AH  22330.71878794  .00001052  00000-0  84191-4 0  9996,2 49755  53.2141 131.5164 0001179  84.8149 275.2978 15.08842208 54536,6917.874,95.437,540.554,538.923,0.0
49755.0,STARLINK-3210,PAYLOAD,2022-11-27 10:44:17,15.08839459,0.0001155,53.2148,128.2454,85.6502,274.4622,4.2875e-05,3.95e-06,0.0,0 STARLINK-3210,1 49755U 21115AH  22331.44742947  .00000395  00000-0  42875-4 0  9999,2 49755  53.2148 128.2454 0001155  85.6502 274.4622 15.08839459 54647,6917.882,95.438,540.5459999999998,538.948,0.0
49755.0,STARLINK-3210,PAYLOAD,2022-11-27 20:16:36,15.08843123,0.0001143,53.2149,126.4608,88.3254,271.7869,4.097100000000001e-05,3.64e-06,0.0,0 STARLINK-3210,1 49755U 21115AH  22331.84486685  .00000364  00000-0  40971-4 0  9998,2 49755  53.2149 126.4608 0001143  88.3254 271.7869 15.08843123 54703,6917.871,95.437,540.5269999999998,538.945,0.0
49755.0,STARLINK-3210,PAYLOAD,2022-11-27 21:51:59,15.08843703,0.0001142,53.2149,126.1635,88.0046,272.1077,4.3269e-05,4.01e-06,0.0,0 STARLINK-3210,1 49755U 21115AH  22331.91110609  .00000401  00000-0  43269-4 0  9991,2 49755  53.2149 126.1635 0001142  88.0046 272.1077 15.08843703 55829,6917.869000000002,95.437,540.524,538.944,0.0
49755.0,STARLINK-3210,PAYLOAD,2022-11-28 12:10:28,15.08836735,0.0001153,53.215,123.4871,88.3377,271.7747,4.8295e-05,4.81e-06,0.0,0 STARLINK-3210,1 49755U 21115AH  22332.50727065  .00000481  00000-0  48295-4 0  9999,2 49755  53.2150 123.4871 0001153  88.3377 271.7747 15.08836735 55911,6917.89,95.438,540.553,538.9580000000002,0.0
49755.0,STARLINK-3210,PAYLOAD,2022-11-29 12:01:15,15.08833154,0.0001212,53.2152,119.0268,89.8953,270.2178,2.0445e-06,-2.55e-06,0.0,0 STARLINK-3210,1 49755U 21115AH  22333.50087577 -.00000255  00000-0  20445-5 0  9995,2 49755  53.2152 119.0268 0001212  89.8953 270.2178 15.08833154 54953,6917.901,95.438,540.605,538.928,0.0
49755.0,STARLINK-3210,PAYLOAD,2022-11-29 13:36:38,15.08833934,0.0001205,53.2152,118.7294,89.7663,270.3467,8.4246e-06,-1.54e-06,0.0,0 STARLINK-3210,1 49755U 21115AH  22333.56711554 -.00000154  00000-0  84246-5 0  9997,2 49755  53.2152 118.7294 0001205  89.7663 270.3467 15.08833934 56070,6917.899,95.438,540.5980000000002,538.93,0.0
49755.0,STARLINK-3210,PAYLOAD,2022-11-30 08:41:18,15.08771515,0.0001412,53.2152,115.1612,104.3939,255.721,0.00096103,0.00015011,0.0,0 STARLINK-3210,1 49755U 21115AH  22334.36201823  .00015011  00000-0  96103-3 0  9999,2 49755  53.2152 115.1612 0001412 104.3939 255.7210 15.08771515 56197,6918.09,95.442,540.932,538.9780000000002,0.0
49755.0,STARLINK-3210,PAYLOAD,2022-11-30 11:52:02,15.08837631,0.0001205,53.2162,114.5671,97.5239,262.589,3.4529e-05,2.62e-06,0.0,0 STARLINK-3210,1 49755U 21115AH  22334.49447439  .00000262  00000-0  34529-4 0  9995,2 49755  53.2162 114.5671 0001205  97.5239 262.5890 15.08837631 55104,6917.888000000001,95.438,540.586,538.919,0.0
49755.0,STARLINK-3210,PAYLOAD,2022-11-30 16:38:11,15.08839837,0.0001217,53.2163,113.6752,96.0435,264.0696,5.2374e-05,5.46e-06,0.0,0 STARLINK-3210,1 49755U 21115AH  22334.69319273  .00000546  00000-0  52374-4 0  9994,2 49755  53.2163 113.6752 0001217  96.0435 264.0696 15.08839837 56247,6917.880999999999,95.438,540.5880000000002,538.904,0.0
49755.0,STARLINK-3210,PAYLOAD,2022-11-30 18:13:35,15.08839686,0.0001195,53.2159,113.3777,94.6125,265.5003,5.015600000000001e-05,5.1e-06,0.0,0 STARLINK-3210,1 49755U 21115AH  22334.75943293  .00000510  00000-0  50156-4 0  9993,2 49755  53.2159 113.3777 0001195  94.6125 265.5003 15.08839686 55149,6917.880999999999,95.438,540.573,538.92,0.0
49755.0,STARLINK-3210,PAYLOAD,2022-12-01 11:42:49,15.08837506,0.0001045,53.2156,110.106,93.7634,266.3478,6.8336e-05,8e-06,0.0,0 STARLINK-3210,1 49755U 21115AH  22335.48807545  .00000800  00000-0  68336-4 0  9994,2 49755  53.2156 110.1060 0001045  93.7634 266.3478 15.08837506 55251,6917.888000000001,95.438,540.476,539.03,0.0
49755.0,STARLINK-3210,PAYLOAD,2022-12-01 18:04:21,15.08844028,0.0001148,53.216,108.9155,98.007,262.1053,0.00013053,1.7899999999999998e-05,0.0,0 STARLINK-3210,1 49755U 21115AH  22335.75302994  .00001790  00000-0  13053-3 0  9996,2 49755  53.2160 108.9155 0001148  98.0070 262.1053 15.08844028 56400,6917.868,95.437,540.5269999999998,538.939,0.0
49755.0,STARLINK-3210,PAYLOAD,2022-12-02 11:33:36,15.08860155,9.63e-05,53.2158,105.6457,99.0554,261.0547,-0.00024275,-4.151e-05,0.0,0 STARLINK-3210,1 49755U 21115AH  22336.48167194 -.00004151  00000-0 -24275-3 0  9992,2 49755  53.2158 105.6457 0000963  99.0554 261.0547 15.08860155 55402,6917.819,95.436,540.35,539.018,0.0
49755.0,STARLINK-3210,PAYLOAD,2022-12-02 17:55:09,15.08835501,0.000111,53.2159,104.4564,93.2809,266.831,0.00016994,2.417e-05,0.0,0 STARLINK-3210,1 49755U 21115AH  22336.74663453  .00002417  00000-0  16994-3 0  9990,2 49755  53.2159 104.4564 0001110  93.2809 266.8310 15.08835501 56558,6917.894,95.438,540.5269999999998,538.991,0.0
